[{"OBJECT_NAME":"STARLINK-1364","OBJECT_ID":"2020-025BL","EPOCH":"2026-03-09T22:42:39.507840","MEAN_MOTION":15.49541195,"ECCENTRICITY":0.00079481,"INCLINATION":53.0507,"RA_OF_ASC_NODE":61.9794,"ARG_OF_PERICENTER":58.2992,"MEAN_ANOMALY":301.8789,"EPHEMERIS_TYPE":0,"CLASSIFICATION_TYPE":"U","NORAD_CAT_ID":45589,"ELEMENT_SET_NO":999,"REV_AT_EPOCH":32573,"BSTAR":0.001962035,"MEAN_MOTION_DOT":0.00111268,"MEAN_MOTION_DDOT":0},{"OBJECT_NAME":"LEMUR-2-JOHNNYTRUONG","OBJECT_ID":"2024-043BA","EPOCH":"2026-03-09T23:23:17.359008","MEAN_MOTION":15.53145437,"ECCENTRICITY":0.00054027,"INCLINATION":97.5264,"RA_OF_ASC_NODE":215.1548,"ARG_OF_PERICENTER":183.0981,"MEAN_ANOMALY":177.0239,"EPHEMERIS_TYPE":0,"CLASSIFICATION_TYPE":"U","NORAD_CAT_ID":59146,"ELEMENT_SET_NO":999,"REV_AT_EPOCH":11260,"BSTAR":0.00059178591,"MEAN_MOTION_DOT":0.00037131,"MEAN_MOTION_DDOT":0}]
